{
  "norad_id": 62911,
  "name": "STARLINK-11537 [DTC]",
  "history": [
    {
      "epoch": "2026-03-28T12:32:30.674400",
      "apogee_km": 357.8567433610988,
      "perigee_km": 354.8736282728696,
      "latitude_deg": 37.73053539007918,
      "longitude_deg": 161.26741600013338,
      "semi_major_axis_km": 6734.502185816984,
      "eccentricity": 0.00022148,
      "inclination_deg": 42.9993,
      "raan_deg": 234.1818,
      "arg_perigee_deg": 273.8955,
      "mean_anomaly_deg": 86.1659,
      "mean_motion_rev_day": 15.70885441
    }
  ]
}